CCSDS_OMM_VERS = 2.0
CREATION_DATE  = 
ORIGINATOR     = 

OBJECT_NAME    = STARLINK-36831
OBJECT_ID      = 2026-034Q
CENTER_NAME    = EARTH
REF_FRAME      = TEME
TIME_SYSTEM    = UTC
MEAN_ELEMENT_THEORY = SGP/SGP4

EPOCH          = 2026-02-28T04:00:01.999584
MEAN_MOTION    = 15.87226559
ECCENTRICITY   = .0000618
INCLINATION    = 53.1496
RA_OF_ASC_NODE = 259.0072
ARG_OF_PERICENTER = 63.3263
MEAN_ANOMALY   = 227.1974

EPHEMERIS_TYPE = 0
CLASSIFICATION_TYPE = U
NORAD_CAT_ID   = 67864
ELEMENT_SET_NO = 999
REV_AT_EPOCH   = 233
BSTAR          = -.638E-2
MEAN_MOTION_DOT = -.1507941E-1
MEAN_MOTION_DDOT = 0

CCSDS_OMM_VERS = 2.0
CREATION_DATE  = 
ORIGINATOR     = 

OBJECT_NAME    = STARLINK-36738
OBJECT_ID      = 2026-034R
CENTER_NAME    = EARTH
REF_FRAME      = TEME
TIME_SYSTEM    = UTC
MEAN_ELEMENT_THEORY = SGP/SGP4

EPOCH          = 2026-02-28T04:00:01.999584
MEAN_MOTION    = 15.87399206
ECCENTRICITY   = .0000674
INCLINATION    = 53.1494
RA_OF_ASC_NODE = 259.0006
ARG_OF_PERICENTER = 64.9855
MEAN_ANOMALY   = 228.4999

EPHEMERIS_TYPE = 0
CLASSIFICATION_TYPE = U
NORAD_CAT_ID   = 67865
ELEMENT_SET_NO = 999
REV_AT_EPOCH   = 233
BSTAR          = -.63029E-2
MEAN_MOTION_DOT = -.1472595E-1
MEAN_MOTION_DDOT = 0

CCSDS_OMM_VERS = 2.0
CREATION_DATE  = 
ORIGINATOR     = 

OBJECT_NAME    = STARLINK-36780
OBJECT_ID      = 2026-034S
CENTER_NAME    = EARTH
REF_FRAME      = TEME
TIME_SYSTEM    = UTC
MEAN_ELEMENT_THEORY = SGP/SGP4

EPOCH          = 2026-02-28T04:00:01.999584
MEAN_MOTION    = 15.87568690
ECCENTRICITY   = .0000672
INCLINATION    = 53.1492
RA_OF_ASC_NODE = 258.9945
ARG_OF_PERICENTER = 66.2176
MEAN_ANOMALY   = 230.1916

EPHEMERIS_TYPE = 0
CLASSIFICATION_TYPE = U
NORAD_CAT_ID   = 67866
ELEMENT_SET_NO = 999
REV_AT_EPOCH   = 233
BSTAR          = -.62025E-2
MEAN_MOTION_DOT = -.1463039E-1
MEAN_MOTION_DDOT = 0

CCSDS_OMM_VERS = 2.0
CREATION_DATE  = 
ORIGINATOR     = 

OBJECT_NAME    = STARLINK-36761
OBJECT_ID      = 2026-034T
CENTER_NAME    = EARTH
REF_FRAME      = TEME
TIME_SYSTEM    = UTC
MEAN_ELEMENT_THEORY = SGP/SGP4

EPOCH          = 2026-02-28T04:00:01.999584
MEAN_MOTION    = 15.87737003
ECCENTRICITY   = .0000599
INCLINATION    = 53.1493
RA_OF_ASC_NODE = 258.9882
ARG_OF_PERICENTER = 73.9604
MEAN_ANOMALY   = 225.4106

EPHEMERIS_TYPE = 0
CLASSIFICATION_TYPE = U
NORAD_CAT_ID   = 67867
ELEMENT_SET_NO = 999
REV_AT_EPOCH   = 233
BSTAR          = -.61767E-2
MEAN_MOTION_DOT = -.1468389E-1
MEAN_MOTION_DDOT = 0

CCSDS_OMM_VERS = 2.0
CREATION_DATE  = 
ORIGINATOR     = 

OBJECT_NAME    = STARLINK-36762
OBJECT_ID      = 2026-034U
CENTER_NAME    = EARTH
REF_FRAME      = TEME
TIME_SYSTEM    = UTC
MEAN_ELEMENT_THEORY = SGP/SGP4

EPOCH          = 2026-02-28T04:00:01.999584
MEAN_MOTION    = 15.87901512
ECCENTRICITY   = .0000583
INCLINATION    = 53.1493
RA_OF_ASC_NODE = 258.9823
ARG_OF_PERICENTER = 77.3591
MEAN_ANOMALY   = 224.9850

EPHEMERIS_TYPE = 0
CLASSIFICATION_TYPE = U
NORAD_CAT_ID   = 67868
ELEMENT_SET_NO = 999
REV_AT_EPOCH   = 233
BSTAR          = -.61367E-2
MEAN_MOTION_DOT = -.147063E-1
MEAN_MOTION_DDOT = 0

CCSDS_OMM_VERS = 2.0
CREATION_DATE  = 
ORIGINATOR     = 

OBJECT_NAME    = STARLINK-36779
OBJECT_ID      = 2026-034V
CENTER_NAME    = EARTH
REF_FRAME      = TEME
TIME_SYSTEM    = UTC
MEAN_ELEMENT_THEORY = SGP/SGP4

EPOCH          = 2026-02-28T04:00:01.999584
MEAN_MOTION    = 15.88059297
ECCENTRICITY   = .0000702
INCLINATION    = 53.1492
RA_OF_ASC_NODE = 258.9760
ARG_OF_PERICENTER = 64.0047
MEAN_ANOMALY   = 241.1979

EPHEMERIS_TYPE = 0
CLASSIFICATION_TYPE = U
NORAD_CAT_ID   = 67869
ELEMENT_SET_NO = 999
REV_AT_EPOCH   = 233
BSTAR          = -.60194E-2
MEAN_MOTION_DOT = -.1456389E-1
MEAN_MOTION_DDOT = 0

CCSDS_OMM_VERS = 2.0
CREATION_DATE  = 
ORIGINATOR     = 

OBJECT_NAME    = STARLINK-36770
OBJECT_ID      = 2026-034W
CENTER_NAME    = EARTH
REF_FRAME      = TEME
TIME_SYSTEM    = UTC
MEAN_ELEMENT_THEORY = SGP/SGP4

EPOCH          = 2026-02-28T04:00:01.999584
MEAN_MOTION    = 15.88384521
ECCENTRICITY   = .0000626
INCLINATION    = 53.1491
RA_OF_ASC_NODE = 258.9639
ARG_OF_PERICENTER = 65.6399
MEAN_ANOMALY   = 245.3843

EPHEMERIS_TYPE = 0
CLASSIFICATION_TYPE = U
NORAD_CAT_ID   = 67870
ELEMENT_SET_NO = 999
REV_AT_EPOCH   = 233
BSTAR          = -.59719E-2
MEAN_MOTION_DOT = -.1467091E-1
MEAN_MOTION_DDOT = 0

CCSDS_OMM_VERS = 2.0
CREATION_DATE  = 
ORIGINATOR     = 

OBJECT_NAME    = STARLINK-36769
OBJECT_ID      = 2026-034X
CENTER_NAME    = EARTH
REF_FRAME      = TEME
TIME_SYSTEM    = UTC
MEAN_ELEMENT_THEORY = SGP/SGP4

EPOCH          = 2026-02-28T04:00:01.999584
MEAN_MOTION    = 15.88223198
ECCENTRICITY   = .0000684
INCLINATION    = 53.1490
RA_OF_ASC_NODE = 258.9698
ARG_OF_PERICENTER = 65.9127
MEAN_ANOMALY   = 242.3077

EPHEMERIS_TYPE = 0
CLASSIFICATION_TYPE = U
NORAD_CAT_ID   = 67871
ELEMENT_SET_NO = 999
REV_AT_EPOCH   = 233
BSTAR          = -.60504E-2
MEAN_MOTION_DOT = -.1473341E-1
MEAN_MOTION_DDOT = 0

CCSDS_OMM_VERS = 2.0
CREATION_DATE  = 
ORIGINATOR     = 

OBJECT_NAME    = STARLINK-36786
OBJECT_ID      = 2026-034Y
CENTER_NAME    = EARTH
REF_FRAME      = TEME
TIME_SYSTEM    = UTC
MEAN_ELEMENT_THEORY = SGP/SGP4

EPOCH          = 2026-02-28T04:00:01.999584
MEAN_MOTION    = 15.88537941
ECCENTRICITY   = .0000606
INCLINATION    = 53.1491
RA_OF_ASC_NODE = 258.9581
ARG_OF_PERICENTER = 61.7580
MEAN_ANOMALY   = 252.1011

EPHEMERIS_TYPE = 0
CLASSIFICATION_TYPE = U
NORAD_CAT_ID   = 67872
ELEMENT_SET_NO = 999
REV_AT_EPOCH   = 233
BSTAR          = -.58853E-2
MEAN_MOTION_DOT = -.1458432E-1
MEAN_MOTION_DDOT = 0

CCSDS_OMM_VERS = 2.0
CREATION_DATE  = 
ORIGINATOR     = 

OBJECT_NAME    = STARLINK-36783
OBJECT_ID      = 2026-034Z
CENTER_NAME    = EARTH
REF_FRAME      = TEME
TIME_SYSTEM    = UTC
MEAN_ELEMENT_THEORY = SGP/SGP4

EPOCH          = 2026-02-28T04:00:01.999584
MEAN_MOTION    = 15.88694437
ECCENTRICITY   = .0000658
INCLINATION    = 53.1490
RA_OF_ASC_NODE = 258.9518
ARG_OF_PERICENTER = 58.9607
MEAN_ANOMALY   = 257.6659

EPHEMERIS_TYPE = 0
CLASSIFICATION_TYPE = U
NORAD_CAT_ID   = 67873
ELEMENT_SET_NO = 999
REV_AT_EPOCH   = 233
BSTAR          = -.58041E-2
MEAN_MOTION_DOT = -.1450993E-1
MEAN_MOTION_DDOT = 0

CCSDS_OMM_VERS = 2.0
CREATION_DATE  = 
ORIGINATOR     = 

OBJECT_NAME    = STARLINK-36730
OBJECT_ID      = 2026-034AA
CENTER_NAME    = EARTH
REF_FRAME      = TEME
TIME_SYSTEM    = UTC
MEAN_ELEMENT_THEORY = SGP/SGP4

EPOCH          = 2026-02-28T04:00:01.999584
MEAN_MOTION    = 15.88857038
ECCENTRICITY   = .0000726
INCLINATION    = 53.1492
RA_OF_ASC_NODE = 258.9469
ARG_OF_PERICENTER = 61.4598
MEAN_ANOMALY   = 257.8920

EPHEMERIS_TYPE = 0
CLASSIFICATION_TYPE = U
NORAD_CAT_ID   = 67874
ELEMENT_SET_NO = 999
REV_AT_EPOCH   = 233
BSTAR          = -.57638E-2
MEAN_MOTION_DOT = -.1452674E-1
MEAN_MOTION_DDOT = 0

CCSDS_OMM_VERS = 2.0
CREATION_DATE  = 
ORIGINATOR     = 

OBJECT_NAME    = STARLINK-36727
OBJECT_ID      = 2026-034AB
CENTER_NAME    = EARTH
REF_FRAME      = TEME
TIME_SYSTEM    = UTC
MEAN_ELEMENT_THEORY = SGP/SGP4

EPOCH          = 2026-02-28T04:00:01.999584
MEAN_MOTION    = 15.89011599
ECCENTRICITY   = .0000684
INCLINATION    = 53.1491
RA_OF_ASC_NODE = 258.9411
ARG_OF_PERICENTER = 59.9769
MEAN_ANOMALY   = 262.1054

EPHEMERIS_TYPE = 0
CLASSIFICATION_TYPE = U
NORAD_CAT_ID   = 67875
ELEMENT_SET_NO = 999
REV_AT_EPOCH   = 233
BSTAR          = -.5704E-2
MEAN_MOTION_DOT = -.1449434E-1
MEAN_MOTION_DDOT = 0

