STARLINK-36831          
1 67864U 26034Q   26059.16668981 -.01507941  00000+0 -63800-2 0  9990
2 67864  53.1496 259.0072 0000618  63.3263 227.1974 15.87226559  2334
STARLINK-36738          
1 67865U 26034R   26059.16668981 -.01472595  00000+0 -63029-2 0  9990
2 67865  53.1494 259.0006 0000674  64.9855 228.4999 15.87399206  2337
STARLINK-36780          
1 67866U 26034S   26059.16668981 -.01463039  00000+0 -62025-2 0  9999
2 67866  53.1492 258.9945 0000672  66.2176 230.1916 15.87568690  2339
STARLINK-36761          
1 67867U 26034T   26059.16668981 -.01468389  00000+0 -61767-2 0  9995
2 67867  53.1493 258.9882 0000599  73.9604 225.4106 15.87737003  2334
STARLINK-36762          
1 67868U 26034U   26059.16668981 -.01470630  00000+0 -61367-2 0  9994
2 67868  53.1493 258.9823 0000583  77.3591 224.9850 15.87901512  2334
STARLINK-36779          
1 67869U 26034V   26059.16668981 -.01456389  00000+0 -60194-2 0  9997
2 67869  53.1492 258.9760 0000702  64.0047 241.1979 15.88059297  2334
STARLINK-36770          
1 67870U 26034W   26059.16668981 -.01467091  00000+0 -59719-2 0  9992
2 67870  53.1491 258.9639 0000626  65.6399 245.3843 15.88384521  2339
STARLINK-36769          
1 67871U 26034X   26059.16668981 -.01473341  00000+0 -60504-2 0  9992
2 67871  53.1490 258.9698 0000684  65.9127 242.3077 15.88223198  2338
STARLINK-36786          
1 67872U 26034Y   26059.16668981 -.01458432  00000+0 -58853-2 0  9991
2 67872  53.1491 258.9581 0000606  61.7580 252.1011 15.88537941  2333
STARLINK-36783          
1 67873U 26034Z   26059.16668981 -.01450993  00000+0 -58041-2 0  9995
2 67873  53.1490 258.9518 0000658  58.9607 257.6659 15.88694437  2330
STARLINK-36730          
1 67874U 26034AA  26059.16668981 -.01452674  00000+0 -57638-2 0  9995
2 67874  53.1492 258.9469 0000726  61.4598 257.8920 15.88857038  2333
STARLINK-36727          
1 67875U 26034AB  26059.16668981 -.01449434  00000+0 -57040-2 0  9993
2 67875  53.1491 258.9411 0000684  59.9769 262.1054 15.89011599  2337
